1   932U 64076B   20199.07306453  .00000087  00000-0  21199-4 0  9997
2   932  81.3387 236.0941 1133507 114.1786 258.1924 12.64022225545460
1   932U 64076B   20199.38968372 +.00000088 +00000-0 +21727-4 0  9993
2   932 081.3387 235.8518 1133504 113.4649 258.9608 12.64022244545888
1   932U 64076B   20199.86461164 +.00000089 +00000-0 +22129-4 0  9991
2   932 081.3387 235.4883 1133504 112.3941 260.1100 12.64022284545945
1   932U 64076B   20200.10207523  .00000088  00000-0  21522-4 0  9993
2   932  81.3386 235.3066 1133503 111.8587 260.6828 12.64022298545593
1   932U 64076B   20200.33953858 +.00000086 +00000-0 +21135-4 0  9995
2   932 081.3386 235.1249 1133504 111.3232 261.2545 12.64022287546005
1   932U 64076B   20200.81446441 +.00000084 +00000-0 +20304-4 0  9998
2   932 081.3386 234.7614 1133496 110.2524 262.3942 12.64022322546067
1   932U 64076B   20201.52685111  .00000082  00000-0  19416-4 0  9996
2   932  81.3386 234.2163 1133492 108.6464 264.0948 12.64022418545779
1   932U 64076B   20201.84346663 +.00000080 +00000-0 +18928-4 0  9992
2   932 081.3385 233.9739 1133491 107.9324 264.8474 12.64022457546191
1   932U 64076B   20202.47669633 +.00000077 +00000-0 +17557-4 0  9990
2   932 081.3385 233.4893 1133489 106.5047 266.3461 12.64022502546274
1   932U 64076B   20202.55584991  .00000075  00000-0  17040-4 0  9997
2   932  81.3385 233.4287 1133488 106.3262 266.5329 12.64022508545907
1   932U 64076B   20203.34738414 +.00000069 +00000-0 +14751-4 0  9995
2   932 081.3384 232.8230 1133487 104.5412 268.3935 12.64022550546386
1   932U 64076B   20203.82230322  .00000066  00000-0  13758-4 0  9996
2   932  81.3384 232.4595 1133482 103.4703 269.5035 12.64022608546065
1   932U 64076B   20203.82230322 +.00000066 +00000-0 +13758-4 0  9996
2   932 081.3384 232.4595 1133482 103.4703 269.5035 12.64022608546447
1   932U 64076B   20204.53467990 +.00000064 +00000-0 +12914-4 0  9999
2   932 081.3383 231.9143 1133474 101.8641 271.1596 12.64022677546530
1   932U 64076B   20204.77213827 +.00000063 +00000-0 +12499-4 0  9990
2   932 081.3383 231.7326 1133474 101.3285 271.7095 12.64022690546568
1   932U 64076B   20205.16790166  .00000063  00000-0  12691-4 0  9994
2   932  81.3383 231.4297 1133472 100.4362 272.6230 12.64022733546239
1   932U 64076B   20205.48451188 +.00000062 +00000-0 +12188-4 0  9997
2   932 081.3383 231.1875 1133462 099.7224 273.3513 12.64022745546655
1   932U 64076B   20205.80112162 +.00000058 +00000-0 +10871-4 0  9991
2   932 081.3383 230.9452 1133461 099.0086 274.0778 12.64022759546691
1   932U 64076B   20206.43433977  .00000053  00000-0  88598-5 0  9998
2   932  81.3382 230.4606 1133453  97.5806 275.5247 12.64022782546390
1   932U 64076B   20207.14670803 +.00000042 +00000-0 +50319-5 0  9996
2   932 081.3381 229.9155 1133447 095.9741 277.1428 12.64022766546867
1   932U 64076B   20207.46331540  .00000045  00000-0  60613-5 0  9994
2   932  81.3381 229.6732 1133440  95.2603 277.8583 12.64022791546528
1   932U 64076B   20207.77992232 +.00000043 +00000-0 +55916-5 0  9997
2   932 081.3381 229.4309 1133437 094.5461 278.5723 12.64022802546949
1   932U 64076B   20208.49228618  .00000049  00000-0  74835-5 0  9994
2   932  81.3380 228.8858 1133419  92.9399 280.1705 12.64022895546651
1   932U 64076B   20208.80889163 +.00000049 +00000-0 +77768-5 0  9995
2   932 081.3380 228.6435 1133416 092.2259 280.8777 12.64022910547076
1   932U 64076B   20209.52125229  .00000057  00000-0  10432-4 0  9994
2   932  81.3380 228.0983 1133415  90.6195 282.4616 12.64022976546787
1   932U 64076B   20209.75870535 +.00000059 +00000-0 +11178-4 0  9996
2   932 081.3380 227.9166 1133415 090.0839 282.9874 12.64022987547196
1   932U 64076B   20210.47106309 +.00000067 +00000-0 +14215-4 0  9992
2   932 081.3380 227.3715 1133410 088.4773 284.5581 12.64023055547283
1   932U 64076B   20210.78766577 +.00000073 +00000-0 +16185-4 0  9990
2   932 081.3380 227.1292 1133409 087.7634 285.2529 12.64023103546943
1   932U 64076B   20211.10426804 +.00000075 +00000-0 +16908-4 0  9998
2   932 081.3380 226.8869 1133406 087.0494 285.9457 12.64023139547366
1   932U 64076B   20211.73747130 +.00000079 +00000-0 +18591-4 0  9999
2   932 081.3380 226.4023 1133402 085.6212 287.3259 12.64023170547442
1   932U 64076B   20212.13322244  .00000083  00000-0  20071-4 0  9990
2   932  81.3380 226.0994 1133397  84.7287 288.1844 12.64023220547119
1   932U 64076B   20212.52897290 +.00000088 +00000-0 +21814-4 0  9992
2   932 081.3380 225.7965 1133390 083.8362 289.0400 12.64023281547542
1   932U 64076B   20212.76642287 +.00000090 +00000-0 +22358-4 0  9999
2   932 081.3380 225.6148 1133389 083.3006 289.5520 12.64023307547572
1   932U 64076B   20213.47877136  .00000086  00000-0  20987-4 0  9992
2   932  81.3380 225.0696 1133376  81.6940 291.0814 12.64023357547285
1   932U 64076B   20214.11196820 +.00000085 +00000-0 +20847-4 0  9992
2   932 081.3380 224.5850 1133369 080.2661 292.4330 12.64023418547745
1   932U 64076B   20214.50771539  .00000085  00000-0  20619-4 0  9998
2   932  81.3380 224.2821 1133362  79.3735 293.2740 12.64023453547411
1   932U 64076B   20215.06176036 +.00000082 +00000-0 +19818-4 0  9997
2   932 081.3380 223.8581 1133356 078.1240 294.4466 12.64023520547862
1   932U 64076B   20215.45750600 +.00000085 +00000-0 +20714-4 0  9995
2   932 081.3380 223.5552 1133351 077.2315 295.2807 12.64023588547913
1   932U 64076B   20216.09069767  .00000079  00000-0  18594-4 0  9999
2   932  81.3381 223.0707 1133345  75.8039 296.6092 12.64023659547618
1   932U 64076B   20216.48644166 +.00000082 +00000-0 +19835-4 0  9997
2   932 081.3380 222.7678 1133340 074.9116 297.4360 12.64023727548042
1   932U 64076B   20217.43622472  .00000088  00000-0  22017-4 0  9991
2   932  81.3380 222.0409 1133328  72.7693 299.4098 12.64023905547787
1   932U 64076B   20218.46515245  .00000080  00000-0  19426-4 0  9996
2   932  81.3381 221.2535 1133319  70.4490 301.5304 12.64024022547910
1   932U 64076B   20218.94004087 +.00000079 +00000-0 +18948-4 0  9992
2   932 081.3381 220.8900 1133317 069.3782 302.5031 12.64024064548353
1   932U 64076B   20219.49407633  .00000076  00000-0  18029-4 0  9994
2   932  81.3381 220.4660 1133314  68.1286 303.6334 12.64024114548045
1   932U 64076B   20219.49407633 +.00000076 +00000-0 +18029-4 0  9994
2   932 081.3381 220.4660 1133314 068.1286 303.6334 12.64024114548427
1   932U 64076B   20220.44384881 +.00000072 +00000-0 +16794-4 0  9993
2   932 081.3382 219.7392 1133308 065.9870 305.5593 12.64024209548544
1   932U 64076B   20221.47276545 +.00000070 +00000-0 +16007-4 0  9999
2   932 081.3382 218.9517 1133302 063.6668 307.6298 12.64024271548676
1   932U 64076B   20221.71020723 +.00000070 +00000-0 +16069-4 0  9999
2   932 081.3383 218.7700 1133301 063.1312 308.1054 12.64024284548703
1   932U 64076B   20222.50167845  .00000073  00000-0  17175-4 0  9996
2   932  81.3382 218.1642 1133286  61.3453 309.6850 12.64024369548422
1   932U 64076B   20222.73911942 +.00000073 +00000-0 +17442-4 0  9993
2   932 081.3383 217.9825 1133285 060.8099 310.1568 12.64024379548831
1   932U 64076B   20223.45144122 +.00000076 +00000-0 +18607-4 0  9998
2   932 081.3383 217.4373 1133277 059.2034 311.5676 12.64024436548925
1   932U 64076B   20223.92632152 +.00000081 +00000-0 +20318-4 0  9993
2   932 081.3383 217.0739 1133273 058.1324 312.5040 12.64024484548988
1   932U 64076B   20224.08461477  .00000081  00000-0  20452-4 0  9990
2   932  81.3384 216.9527 1133271  57.7754 312.8155 12.64024504548626
1   932U 64076B   20224.24290799 +.00000082 +00000-0 +20823-4 0  9998
2   932 081.3384 216.8316 1133268 057.4183 313.1266 12.64024504549022
1   932U 64076B   20224.71778706 +.00000089 +00000-0 +23433-4 0  9996
2   932 081.3385 216.4682 1133265 056.3474 314.0578 12.64024595549085
1   932U 64076B   20225.43010438  .00000092  00000-0  24559-4 0  9991
2   932  81.3385 215.9230 1133254  54.7407 315.4489 12.64024678548799
1   932U 64076B   20225.74668934 +.00000096 +00000-0 +25852-4 0  9996
2   932 081.3386 215.6807 1133253 054.0265 316.0651 12.64024721549216
1   932U 64076B   20226.22156623 +.00000097 +00000-0 +26254-4 0  9995
2   932 081.3386 215.3173 1133245 052.9555 316.9867 12.64024775549272
1   932U 64076B   20226.69644247  .00000099  00000-0  27158-4 0  9996
2   932  81.3387 214.9539 1133245  51.8852 317.9049 12.64024860548954
1   932U 64076B   20227.48790132 +.00000103 +00000-0 +28715-4 0  9995
2   932 081.3387 214.3481 1133233 050.1003 319.4297 12.64025025549431
1   932U 64076B   20227.72533865  .00000103  00000-0  28709-4 0  9993
2   932  81.3388 214.1664 1133232  49.5649 319.8856 12.64025048549081
1   932U 64076B   20228.43764977 +.00000096 +00000-0 +26319-4 0  9998
2   932 081.3388 213.6213 1133225 047.9585 321.2493 12.64025104549557
1   932U 64076B   20228.91252304 +.00000094 +00000-0 +25555-4 0  9996
2   932 081.3389 213.2578 1133220 046.8876 322.1550 12.64025171549619
1   932U 64076B   20229.07081400  .00000090  00000-0  24246-4 0  9993
2   932  81.3389 213.1367 1133221  46.5309 322.4562 12.64025184549253
1   932U 64076B   20229.46654115 +.00000083 +00000-0 +21915-4 0  9997
2   932 081.3390 212.8338 1133216 045.6382 323.2086 12.64025208549688
1   932U 64076B   20229.94141318 +.00000077 +00000-0 +19690-4 0  9996
2   932 081.3391 212.4704 1133213 044.5676 324.1086 12.64025242549748
1   932U 64076B   20230.41628463  .00000072  00000-0  17868-4 0  9991
2   932  81.3391 212.1070 1133201  43.4960 325.0069 12.64025268549426
1   932U 64076B   20230.49542981 +.00000070 +00000-0 +17394-4 0  9991
2   932 081.3391 212.0464 1133202 043.3176 325.1562 12.64025275549811
1   932U 64076B   20230.65372016 +.00000069 +00000-0 +17087-4 0  9996
2   932 081.3391 211.9253 1133203 042.9608 325.4547 12.64025282549837
1   932U 64076B   20231.44517095  .00000069  00000-0  17139-4 0  9990
2   932  81.3392 211.3196 1133194  41.1763 326.9435 12.64025401549554
1   932U 64076B   20231.92004071 +.00000067 +00000-0 +16349-4 0  9998
2   932 081.3392 210.9562 1133190 040.1054 327.8338 12.64025459549997
